OBJECT_NAME,OBJECT_ID,EPOCH,MEAN_MOTION,ECCENTRICITY,INCLINATION,RA_OF_ASC_NODE,ARG_OF_PERICENTER,MEAN_ANOMALY,EPHEMERIS_TYPE,CLASSIFICATION_TYPE,NORAD_CAT_ID,ELEMENT_SET_NO,REV_AT_EPOCH,BSTAR,MEAN_MOTION_DOT,MEAN_MOTION_DDOT
STARLINK-36464,2026-005AA,2026-07-13T11:17:40.926912,15.27597252,.00040228,43.0077,247.5929,306.5047,53.5434,0,U,67428,999,2792,.42374568E-3,.11424E-3,0
STARLINK-36513,2026-005AB,2026-07-13T11:08:27.305952,15.27571949,.00019245,43.0000,247.5315,295.8781,64.1873,0,U,67429,999,2792,.53516365E-3,.1449E-3,0
STARLINK-36515,2026-005AC,2026-07-14T03:21:28.071072,15.27594689,.0001257,42.9991,244.0125,275.1050,84.9658,0,U,67430,999,2802,.33089E-3,.8858E-4,0
STARLINK-36443,2026-005AD,2026-07-14T02:38:53.108160,15.27587879,.0000858,42.9953,243.7772,204.4826,155.5985,0,U,67431,999,2803,.45785E-3,.12361E-3,0
STARLINK-36460,2026-005AE,2026-07-14T03:51:03.064896,15.27585377,.0000859,42.9997,244.1616,241.6939,118.3826,0,U,67432,999,2802,.39424E-3,.10604E-3,0
YAOGAN-50 01,2026-006A,2026-07-14T02:54:01.668096,13.83244734,.0000875,142.0412,345.9209,288.6631,71.3993,0,U,67433,999,2516,.98749E-4,.297E-5,0
HULIANWANG DIGUI-137,2026-007A,2026-07-13T16:39:40.680576,13.29326896,.0000903,50.0097,350.7898,109.2046,250.8923,0,U,67435,999,2431,.41778E-5,-.122E-5,0
HULIANWANG DIGUI-138,2026-007B,2026-07-13T22:28:33.251808,13.29325295,.0000901,50.0076,350.0368,112.2019,247.8949,0,U,67436,999,2434,.18649E-4,-.115E-5,0
HULIANWANG DIGUI-139,2026-007C,2026-07-13T18:39:46.067328,13.29328387,.0000894,50.0048,350.4884,99.4940,260.6033,0,U,67437,999,2432,.55378E-4,-.98E-6,0
HULIANWANG DIGUI-140,2026-007D,2026-07-13T17:15:46.343232,13.29326000,.0000884,50.0069,350.8814,111.7410,248.3556,0,U,67438,999,2431,.39451E-4,-.106E-5,0
HULIANWANG DIGUI-141,2026-007E,2026-07-13T16:27:36.688320,13.29326794,.0000885,50.0064,350.6974,110.6347,249.4620,0,U,67439,999,2431,.20482E-4,-.115E-5,0
HULIANWANG DIGUI-142,2026-007F,2026-07-13T16:15:37.532736,13.29326507,.0000891,50.0139,350.7688,108.7610,251.3359,0,U,67440,999,2431,.55019E-5,-.122E-5,0
HULIANWANG DIGUI-143,2026-007G,2026-07-13T19:40:10.456608,13.29324934,.0000743,50.0122,350.1578,112.1503,247.9448,0,U,67441,999,2433,.14294E-4,-.117E-5,0
HULIANWANG DIGUI-144,2026-007H,2026-07-13T19:27:52.897824,13.29329134,.0000894,50.0106,350.0981,115.1670,244.9295,0,U,67442,999,2433,.14866E-4,-.117E-5,0
HULIANWANG DIGUI-145,2026-007J,2026-07-13T15:39:36.108000,13.29325737,.000085,50.0111,350.6004,109.8079,250.2885,0,U,67443,999,2431,.31245E-4,-.11E-5,0
STARLINK-36542,2026-008A,2026-07-13T10:59:37.457088,15.27589250,.00016163,43.0008,215.2415,274.7329,85.3338,0,U,67445,999,2880,.13890939E-3,.3563E-4,0
STARLINK-36539,2026-008B,2026-07-14T03:01:34.133664,15.27559067,.0001256,42.9993,211.6499,283.9689,76.1023,0,U,67446,999,2890,.11879E-3,.3006E-4,0
STARLINK-36440,2026-008C,2026-07-14T01:32:43.429056,15.27584047,.0000687,42.9929,211.1635,228.4549,131.6244,0,U,67447,999,2890,.27466E-3,.7305E-4,0
STARLINK-36423,2026-008D,2026-07-14T02:04:11.065152,15.27585759,.0000567,42.9957,211.3484,211.6421,148.4396,0,U,67448,999,2890,.35959E-3,.9648E-4,0
STARLINK-36519,2026-008E,2026-07-13T10:44:47.800608,15.27614988,.00027694,43.0013,215.1546,258.2449,101.8092,0,U,67449,999,2880,.58796396E-3,.1597E-3,0
STARLINK-36525,2026-008F,2026-07-14T00:46:40.446048,15.27587662,.0001368,43.0011,211.8000,249.1526,110.9179,0,U,67450,999,2889,.31687E-3,.847E-4,0
STARLINK-36511,2026-008G,2026-07-13T09:31:01.043040,15.27601974,.00032897,43.0028,215.6438,301.0462,59.0066,0,U,67451,999,2879,.46432346E-3,.12546E-3,0
STARLINK-36524,2026-008H,2026-07-14T02:57:49.981824,15.27554690,.0003565,42.9969,211.6302,294.5604,65.4876,0,U,67452,999,2890,-.54847E-3,-.15316E-3,0
STARLINK-36518,2026-008J,2026-07-13T12:20:50.106048,15.27612117,.0001653,43.0020,214.7804,284.1324,75.9344,0,U,67453,999,2881,.44479E-3,.12009E-3,0
STARLINK-36517,2026-008K,2026-07-13T10:55:55.339104,15.27594215,.00016897,43.0006,215.2235,277.2431,82.8229,0,U,67454,999,2880,.2537078E-3,.6729E-4,0
STARLINK-36516,2026-008L,2026-07-13T10:07:51.660480,15.27592178,.00023878,42.9868,214.9682,23.4548,336.6412,0,U,67455,999,2880,.72315336E-3,.19699E-3,0
STARLINK-36493,2026-008M,2026-07-13T10:13:21.378432,15.27605681,.00015452,42.9984,214.9888,263.1197,96.9478,0,U,67456,999,2880,.46363533E-3,.12528E-3,0
STARLINK-36529,2026-008N,2026-07-13T09:16:13.232064,15.27610452,.00014649,42.9985,215.5496,213.8767,146.1992,0,U,67457,999,2879,.47074095E-3,.12726E-3,0
STARLINK-36528,2026-008P,2026-07-14T03:03:09.494208,15.27579523,.0001261,42.9980,210.7743,241.1151,118.9574,0,U,67458,999,2891,.10627E-3,.2663E-4,0
STARLINK-36546,2026-008Q,2026-07-13T09:36:34.086528,15.27594664,.00023939,43.0014,215.6596,274.0092,86.0486,0,U,67459,999,2879,.39374606E-3,.10593E-3,0
