STARLINK-36464          
1 67428U 26005AA  26194.47061258  .00011424  00000+0  42375-3 0  9990
2 67428  43.0077 247.5929 0004022 306.5047  53.5434 15.27597252 27920
STARLINK-36513          
1 67429U 26005AB  26194.46420493  .00014490  00000+0  53516-3 0  9995
2 67429  43.0000 247.5315 0001924 295.8781  64.1873 15.27571949 27929
STARLINK-36515          
1 67430U 26005AC  26195.13990823  .00008858  00000+0  33089-3 0  9995
2 67430  42.9991 244.0125 0001257 275.1050  84.9658 15.27594689 28027
STARLINK-36443          
1 67431U 26005AD  26195.11033690  .00012361  00000+0  45785-3 0  9994
2 67431  42.9953 243.7772 0000858 204.4826 155.5985 15.27587879 28034
STARLINK-36460          
1 67432U 26005AE  26195.16045214  .00010604  00000+0  39424-3 0  9996
2 67432  42.9997 244.1616 0000859 241.6939 118.3826 15.27585377 28025
YAOGAN-50 01            
1 67433U 26006A   26195.12085264  .00000297  00000+0  98749-4 0  9996
2 67433 142.0412 345.9209 0000875 288.6631  71.3993 13.83244734 25160
HULIANWANG DIGUI-137    
1 67435U 26007A   26194.69422084 -.00000122  00000+0  41778-5 0  9994
2 67435  50.0097 350.7898 0000903 109.2046 250.8923 13.29326896 24310
HULIANWANG DIGUI-138    
1 67436U 26007B   26194.93649597 -.00000115  00000+0  18649-4 0  9994
2 67436  50.0076 350.0368 0000901 112.2019 247.8949 13.29325295 24344
HULIANWANG DIGUI-139    
1 67437U 26007C   26194.77761652 -.00000098  00000+0  55378-4 0  9994
2 67437  50.0048 350.4884 0000894  99.4940 260.6033 13.29328387 24321
HULIANWANG DIGUI-140    
1 67438U 26007D   26194.71928638 -.00000106  00000+0  39451-4 0  9992
2 67438  50.0069 350.8814 0000884 111.7410 248.3556 13.29326000 24313
HULIANWANG DIGUI-141    
1 67439U 26007E   26194.68584130 -.00000115  00000+0  20482-4 0  9998
2 67439  50.0064 350.6974 0000885 110.6347 249.4620 13.29326794 24316
HULIANWANG DIGUI-142    
1 67440U 26007F   26194.67751774 -.00000122  00000+0  55019-5 0  9992
2 67440  50.0139 350.7688 0000891 108.7610 251.3359 13.29326507 24315
HULIANWANG DIGUI-143    
1 67441U 26007G   26194.81956547 -.00000117  00000+0  14294-4 0  9997
2 67441  50.0122 350.1578 0000743 112.1503 247.9448 13.29324934 24330
HULIANWANG DIGUI-144    
1 67442U 26007H   26194.81102891 -.00000117  00000+0  14866-4 0  9998
2 67442  50.0106 350.0981 0000894 115.1670 244.9295 13.29329134 24339
HULIANWANG DIGUI-145    
1 67443U 26007J   26194.65250125 -.00000110  00000+0  31245-4 0  9998
2 67443  50.0111 350.6004 0000850 109.8079 250.2885 13.29325737 24311
STARLINK-36542          
1 67445U 26008A   26194.45807242  .00003563  00000+0  13891-3 0  9997
2 67445  43.0008 215.2415 0001616 274.7329  85.3338 15.27589250 28803
STARLINK-36539          
1 67446U 26008B   26195.12608951  .00003006  00000+0  11879-3 0  9995
2 67446  42.9993 211.6499 0001256 283.9689  76.1023 15.27559067 28901
STARLINK-36440          
1 67447U 26008C   26195.06439154  .00007305  00000+0  27466-3 0  9991
2 67447  42.9929 211.1635 0000687 228.4549 131.6244 15.27584047 28902
STARLINK-36423          
1 67448U 26008D   26195.08623918  .00009648  00000+0  35959-3 0  9995
2 67448  42.9957 211.3484 0000567 211.6421 148.4396 15.27585759 28903
STARLINK-36519          
1 67449U 26008E   26194.44777547  .00015970  00000+0  58796-3 0  9992
2 67449  43.0013 215.1546 0002769 258.2449 101.8092 15.27614988 28805
STARLINK-36525          
1 67450U 26008F   26195.03241257  .00008470  00000+0  31687-3 0  9991
2 67450  43.0011 211.8000 0001368 249.1526 110.9179 15.27587662 28896
STARLINK-36511          
1 67451U 26008G   26194.39653985  .00012546  00000+0  46432-3 0  9998
2 67451  43.0028 215.6438 0003289 301.0462  59.0066 15.27601974 28793
STARLINK-36524          
1 67452U 26008H   26195.12349516 -.00015316  00000+0 -54847-3 0  9992
2 67452  42.9969 211.6302 0003565 294.5604  65.4876 15.27554690 28908
STARLINK-36518          
1 67453U 26008J   26194.51446882  .00012009  00000+0  44479-3 0  9993
2 67453  43.0020 214.7804 0001653 284.1324  75.9344 15.27612117 28815
STARLINK-36517          
1 67454U 26008K   26194.45550161  .00006729  00000+0  25371-3 0  9995
2 67454  43.0006 215.2235 0001689 277.2431  82.8229 15.27594215 28801
STARLINK-36516          
1 67455U 26008L   26194.42212570  .00019699  00000+0  72315-3 0  9992
2 67455  42.9868 214.9682 0002387  23.4548 336.6412 15.27592178 28804
STARLINK-36493          
1 67456U 26008M   26194.42594188  .00012528  00000+0  46364-3 0  9990
2 67456  42.9984 214.9888 0001545 263.1197  96.9478 15.27605681 28802
STARLINK-36529          
1 67457U 26008N   26194.38626426  .00012726  00000+0  47074-3 0  9996
2 67457  42.9985 215.5496 0001464 213.8767 146.1992 15.27610452 28790
STARLINK-36528          
1 67458U 26008P   26195.12719322  .00002663  00000+0  10627-3 0  9991
2 67458  42.9980 210.7743 0001261 241.1151 118.9574 15.27579523 28914
STARLINK-36546          
1 67459U 26008Q   26194.40039452  .00010593  00000+0  39375-3 0  9993
2 67459  43.0014 215.6596 0002393 274.0092  86.0486 15.27594664 28797
